{
  "type": "FeatureCollection",
  "features": [
    {
      "type": "Feature",
      "properties": {
        "norad_id": 34554,
        "name": "COSMOS 2251 DEB",
        "group": "cosmos-2251-debris",
        "lat": 22.32378348578922,
        "lon": 118.53859395367977,
        "alt_km": 778.5369764018196,
        "timestamp": "2025-12-09T07:41:33.606202+00:00",
        "meta_object_name": "COSMOS 2251 DEB",
        "meta_object_id": "1993-036UQ",
        "meta_epoch": "2025-12-08T22:53:01.472064",
        "meta_mean_motion": 14.37924987,
        "meta_eccentricity": 0.00228236,
        "meta_inclination": 74.0385,
        "meta_ra_of_asc_node": 305.9631,
        "meta_arg_of_pericenter": 9.1788,
        "meta_mean_anomaly": 48.0884,
        "meta_ephemeris_type": 0,
        "meta_classification_type": "U",
        "meta_norad_cat_id": 34554,
        "meta_element_set_no": 999,
        "meta_rev_at_epoch": 87701,
        "meta_bstar": 0.00054952852,
        "meta_mean_motion_dot": 1.639e-05,
        "meta_mean_motion_ddot": 0,
        "tle_line1": "1 34554U 93036UQ  25342.95348926  .00001639  00000+0  54953-3 0  9991",
        "tle_line2": "2 34554  74.0385 305.9631 0022823   9.1788  48.0884 14.37924987877016"
      },
      "geometry": {
        "type": "Point",
        "coordinates": [
          118.53859395367977,
          22.32378348578922
        ]
      }
    },
    {
      "type": "Feature",
      "properties": {
        "norad_id": 34556,
        "name": "COSMOS 2251 DEB",
        "group": "cosmos-2251-debris",
        "lat": -5.653572912617167,
        "lon": -46.79899091151683,
        "alt_km": 634.3333250040132,
        "timestamp": "2025-12-09T07:41:33.606213+00:00",
        "meta_object_name": "COSMOS 2251 DEB",
        "meta_object_id": "1993-036US",
        "meta_epoch": "2025-12-08T11:36:33.981696",
        "meta_mean_motion": 14.7758469,
        "meta_eccentricity": 0.00084123,
        "meta_inclination": 74.0161,
        "meta_ra_of_asc_node": 133.2183,
        "meta_arg_of_pericenter": 192.5703,
        "meta_mean_anomaly": 223.8044,
        "meta_ephemeris_type": 0,
        "meta_classification_type": "U",
        "meta_norad_cat_id": 34556,
        "meta_element_set_no": 999,
        "meta_rev_at_epoch": 88266,
        "meta_bstar": 0.002974503,
        "meta_mean_motion_dot": 0.00021305,
        "meta_mean_motion_ddot": 0,
        "tle_line1": "1 34556U 93036US  25342.48372664  .00021305  00000+0  29745-2 0  9999",
        "tle_line2": "2 34556  74.0161 133.2183 0008412 192.5703 223.8044 14.77584690882661"
      },
      "geometry": {
        "type": "Point",
        "coordinates": [
          -46.79899091151683,
          -5.653572912617167
        ]
      }
    },
    {
      "type": "Feature",
      "properties": {
        "norad_id": 34560,
        "name": "COSMOS 2251 DEB",
        "group": "cosmos-2251-debris",
        "lat": 30.01153150694017,
        "lon": -40.73897317771799,
        "alt_km": 651.3145383434576,
        "timestamp": "2025-12-09T07:41:33.606244+00:00",
        "meta_object_name": "COSMOS 2251 DEB",
        "meta_object_id": "1993-036UW",
        "meta_epoch": "2025-12-08T21:54:52.914816",
        "meta_mean_motion": 14.71969367,
        "meta_eccentricity": 0.00149372,
        "meta_inclination": 74.0166,
        "meta_ra_of_asc_node": 149.5837,
        "meta_arg_of_pericenter": 231.002,
        "meta_mean_anomaly": 279.6739,
        "meta_ephemeris_type": 0,
        "meta_classification_type": "U",
        "meta_norad_cat_id": 34560,
        "meta_element_set_no": 999,
        "meta_rev_at_epoch": 88195,
        "meta_bstar": 0.0027991167,
        "meta_mean_motion_dot": 0.00017605,
        "meta_mean_motion_ddot": 0,
        "tle_line1": "1 34560U 93036UW  25342.91311244  .00017605  00000+0  27991-2 0  9998",
        "tle_line2": "2 34560  74.0166 149.5837 0014937 231.0020 279.6739 14.71969367881950"
      },
      "geometry": {
        "type": "Point",
        "coordinates": [
          -40.73897317771799,
          30.01153150694017
        ]
      }
    },
    {
      "type": "Feature",
      "properties": {
        "norad_id": 34563,
        "name": "COSMOS 2251 DEB",
        "group": "cosmos-2251-debris",
        "lat": -45.643990501954754,
        "lon": 47.113054419602285,
        "alt_km": 741.1189492674257,
        "timestamp": "2025-12-09T07:41:33.606260+00:00",
        "meta_object_name": "COSMOS 2251 DEB",
        "meta_object_id": "1993-036UZ",
        "meta_epoch": "2025-12-08T17:39:33.870816",
        "meta_mean_motion": 14.46492512,
        "meta_eccentricity": 0.0013851,
        "meta_inclination": 74.038,
        "meta_ra_of_asc_node": 211.1833,
        "meta_arg_of_pericenter": 305.2335,
        "meta_mean_anomaly": 119.2687,
        "meta_ephemeris_type": 0,
        "meta_classification_type": "U",
        "meta_norad_cat_id": 34563,
        "meta_element_set_no": 999,
        "meta_rev_at_epoch": 88139,
        "meta_bstar": 0.00081976577,
        "meta_mean_motion_dot": 2.928e-05,
        "meta_mean_motion_ddot": 0,
        "tle_line1": "1 34563U 93036UZ  25342.73580869  .00002928  00000+0  81977-3 0  9999",
        "tle_line2": "2 34563  74.0380 211.1833 0013851 305.2335 119.2687 14.46492512881394"
      },
      "geometry": {
        "type": "Point",
        "coordinates": [
          47.113054419602285,
          -45.643990501954754
        ]
      }
    },
    {
      "type": "Feature",
      "properties": {
        "norad_id": 34564,
        "name": "COSMOS 2251 DEB",
        "group": "cosmos-2251-debris",
        "lat": 70.51204211391055,
        "lon": -61.65770309777918,
        "alt_km": 749.0206303324667,
        "timestamp": "2025-12-09T07:41:33.606271+00:00",
        "meta_object_name": "COSMOS 2251 DEB",
        "meta_object_id": "1993-036VA",
        "meta_epoch": "2025-12-08T19:57:22.076928",
        "meta_mean_motion": 14.40680698,
        "meta_eccentricity": 0.00188646,
        "meta_inclination": 74.0327,
        "meta_ra_of_asc_node": 245.242,
        "meta_arg_of_pericenter": 349.8418,
        "meta_mean_anomaly": 73.388,
        "meta_ephemeris_type": 0,
        "meta_classification_type": "U",
        "meta_norad_cat_id": 34564,
        "meta_element_set_no": 999,
        "meta_rev_at_epoch": 87950,
        "meta_bstar": 0.00049956431,
        "meta_mean_motion_dot": 1.572e-05,
        "meta_mean_motion_ddot": 0,
        "tle_line1": "1 34564U 93036VA  25342.83150552  .00001572  00000+0  49956-3 0  9998",
        "tle_line2": "2 34564  74.0327 245.2420 0018864 349.8418  73.3880 14.40680698879504"
      },
      "geometry": {
        "type": "Point",
        "coordinates": [
          -61.65770309777918,
          70.51204211391055
        ]
      }
    },
    {
      "type": "Feature",
      "properties": {
        "norad_id": 34567,
        "name": "COSMOS 2251 DEB",
        "group": "cosmos-2251-debris",
        "lat": -28.44753296723873,
        "lon": 154.01487665964873,
        "alt_km": 819.2028726659873,
        "timestamp": "2025-12-09T07:41:33.606281+00:00",
        "meta_object_name": "COSMOS 2251 DEB",
        "meta_object_id": "1993-036VD",
        "meta_epoch": "2025-12-08T22:16:40.852704",
        "meta_mean_motion": 14.24009841,
        "meta_eccentricity": 0.0074556,
        "meta_inclination": 74.0397,
        "meta_ra_of_asc_node": 163.64,
        "meta_arg_of_pericenter": 238.7304,
        "meta_mean_anomaly": 240.6349,
        "meta_ephemeris_type": 0,
        "meta_classification_type": "U",
        "meta_norad_cat_id": 34567,
        "meta_element_set_no": 999,
        "meta_rev_at_epoch": 87070,
        "meta_bstar": 0.00030795654,
        "meta_mean_motion_dot": 7.02e-06,
        "meta_mean_motion_ddot": 0,
        "tle_line1": "1 34567U 93036VD  25342.92825061  .00000702  00000+0  30796-3 0  9991",
        "tle_line2": "2 34567  74.0397 163.6400 0074556 238.7304 240.6349 14.24009841870704"
      },
      "geometry": {
        "type": "Point",
        "coordinates": [
          154.01487665964873,
          -28.44753296723873
        ]
      }
    },
    {
      "type": "Feature",
      "properties": {
        "norad_id": 34569,
        "name": "COSMOS 2251 DEB",
        "group": "cosmos-2251-debris",
        "lat": 48.666078489021196,
        "lon": 5.267527140470266,
        "alt_km": 812.8412765358962,
        "timestamp": "2025-12-09T07:41:33.606292+00:00",
        "meta_object_name": "COSMOS 2251 DEB",
        "meta_object_id": "1993-036VF",
        "meta_epoch": "2025-12-08T17:57:16.534656",
        "meta_mean_motion": 14.24737947,
        "meta_eccentricity": 0.01570973,
        "meta_inclination": 73.9904,
        "meta_ra_of_asc_node": 205.3539,
        "meta_arg_of_pericenter": 34.6536,
        "meta_mean_anomaly": 37.3021,
        "meta_ephemeris_type": 0,
        "meta_classification_type": "U",
        "meta_norad_cat_id": 34569,
        "meta_element_set_no": 999,
        "meta_rev_at_epoch": 86911,
        "meta_bstar": 0.0010409461,
        "meta_mean_motion_dot": 2.731e-05,
        "meta_mean_motion_ddot": 0,
        "tle_line1": "1 34569U 93036VF  25342.74810804  .00002731  00000+0  10409-2 0  9994",
        "tle_line2": "2 34569  73.9904 205.3539 0157097  34.6536  37.3021 14.24737947869113"
      },
      "geometry": {
        "type": "Point",
        "coordinates": [
          5.267527140470266,
          48.666078489021196
        ]
      }
    }
  ]
}